[
  {
    "COMMENT": "GENERATED VIA SPACETRACK.ORG API",
    "ORIGINATOR": "18 SPCS",
    "NORAD_CAT_ID": "43682",
    "OBJECT_NAME": "H-2A R/B",
    "OBJECT_TYPE": "ROCKET BODY",
    "CLASSIFICATION_TYPE": "U",
    "INTLDES": "18084L",
    "EPOCH": "2023-05-13 20:48:26",
    "EPOCH_MICROSECONDS": "894880",
    "MEAN_MOTION": "15.08195011",
    "ECCENTRICITY": "0.0050058",
    "INCLINATION": "98.8968",
    "RA_OF_ASC_NODE": "152.6",
    "ARG_OF_PERICENTER": "256.4131",
    "MEAN_ANOMALY": "103.1515",
    "EPHEMERIS_TYPE": "0",
    "ELEMENT_SET_NO": "999",
    "REV_AT_EPOCH": "24904",
    "BSTAR": "0.00041472",
    "MEAN_MOTION_DOT": "0.00006518",
    "MEAN_MOTION_DDOT": "0",
    "FILE": "3907148",
    "TLE_LINE0": "0 H-2A R/B",
    "TLE_LINE1": "1 43682U 18084L   23133.86697795  .00006518  00000-0  41472-3 0  9994",
    "TLE_LINE2": "2 43682  98.8968 152.6000 0050058 256.4131 103.1515 15.08195011249043",
    "OBJECT_ID": "2018-084L",
    "OBJECT_NUMBER": "43682",
    "SEMIMAJOR_AXIS": "6919.853",
    "PERIOD": "95.478",
    "APOGEE": "576.357",
    "PERIGEE": "507.078",
    "DECAYED": "0"
  },
  {
    "COMMENT": "GENERATED VIA SPACETRACK.ORG API",
    "ORIGINATOR": "18 SPCS",
    "NORAD_CAT_ID": "43682",
    "OBJECT_NAME": "H-2A R/B",
    "OBJECT_TYPE": "ROCKET BODY",
    "CLASSIFICATION_TYPE": "U",
    "INTLDES": "18084L",
    "EPOCH": "2023-05-14 14:19:20",
    "EPOCH_MICROSECONDS": "766432",
    "MEAN_MOTION": "15.08203753",
    "ECCENTRICITY": "0.0050054",
    "INCLINATION": "98.8968",
    "RA_OF_ASC_NODE": "153.4444",
    "ARG_OF_PERICENTER": "253.935",
    "MEAN_ANOMALY": "105.6359",
    "EPHEMERIS_TYPE": "0",
    "ELEMENT_SET_NO": "999",
    "REV_AT_EPOCH": "24915",
    "BSTAR": "0.00036267",
    "MEAN_MOTION_DOT": "0.00005689",
    "MEAN_MOTION_DDOT": "0",
    "FILE": "3907744",
    "TLE_LINE0": "0 H-2A R/B",
    "TLE_LINE1": "1 43682U 18084L   23134.59676813  .00005689  00000-0  36267-3 0  9997",
    "TLE_LINE2": "2 43682  98.8968 153.4444 0050054 253.9350 105.6359 15.08203753249153",
    "OBJECT_ID": "2018-084L",
    "OBJECT_NUMBER": "43682",
    "SEMIMAJOR_AXIS": "6919.826",
    "PERIOD": "95.478",
    "APOGEE": "576.327",
    "PERIGEE": "507.054",
    "DECAYED": "0"
  },
  {
    "COMMENT": "GENERATED VIA SPACETRACK.ORG API",
    "ORIGINATOR": "18 SPCS",
    "NORAD_CAT_ID": "43682",
    "OBJECT_NAME": "H-2A R/B",
    "OBJECT_TYPE": "ROCKET BODY",
    "CLASSIFICATION_TYPE": "U",
    "INTLDES": "18084L",
    "EPOCH": "2023-05-14 19:05:57",
    "EPOCH_MICROSECONDS": "206400",
    "MEAN_MOTION": "15.08206629",
    "ECCENTRICITY": "0.0050047",
    "INCLINATION": "98.8968",
    "RA_OF_ASC_NODE": "153.6747",
    "ARG_OF_PERICENTER": "253.256",
    "MEAN_ANOMALY": "106.3169",
    "EPHEMERIS_TYPE": "0",
    "ELEMENT_SET_NO": "999",
    "REV_AT_EPOCH": "24918",
    "BSTAR": "0.00036849",
    "MEAN_MOTION_DOT": "0.00005782",
    "MEAN_MOTION_DDOT": "0",
    "FILE": "3907844",
    "TLE_LINE0": "0 H-2A R/B",
    "TLE_LINE1": "1 43682U 18084L   23134.79580100  .00005782  00000-0  36849-3 0  9992",
    "TLE_LINE2": "2 43682  98.8968 153.6747 0050047 253.2560 106.3169 15.08206629249184",
    "OBJECT_ID": "2018-084L",
    "OBJECT_NUMBER": "43682",
    "SEMIMAJOR_AXIS": "6919.817",
    "PERIOD": "95.478",
    "APOGEE": "576.314",
    "PERIGEE": "507.050",
    "DECAYED": "0"
  },
  {
    "COMMENT": "GENERATED VIA SPACETRACK.ORG API",
    "ORIGINATOR": "18 SPCS",
    "NORAD_CAT_ID": "43682",
    "OBJECT_NAME": "H-2A R/B",
    "OBJECT_TYPE": "ROCKET BODY",
    "CLASSIFICATION_TYPE": "U",
    "INTLDES": "18084L",
    "EPOCH": "2023-05-14 19:05:57",
    "EPOCH_MICROSECONDS": "206400",
    "MEAN_MOTION": "15.08206629",
    "ECCENTRICITY": "0.0050047",
    "INCLINATION": "98.8968",
    "RA_OF_ASC_NODE": "153.6747",
    "ARG_OF_PERICENTER": "253.256",
    "MEAN_ANOMALY": "106.3169",
    "EPHEMERIS_TYPE": "0",
    "ELEMENT_SET_NO": "999",
    "REV_AT_EPOCH": "24918",
    "BSTAR": "0.00036849",
    "MEAN_MOTION_DOT": "0.00005782",
    "MEAN_MOTION_DDOT": "0",
    "FILE": "3908005",
    "TLE_LINE0": "0 H-2A R/B",
    "TLE_LINE1": "1 43682U 18084L   23134.79580100  .00005782  00000-0  36849-3 0  9992",
    "TLE_LINE2": "2 43682  98.8968 153.6747 0050047 253.2560 106.3169 15.08206629249184",
    "OBJECT_ID": "2018-084L",
    "OBJECT_NUMBER": "43682",
    "SEMIMAJOR_AXIS": "6919.817",
    "PERIOD": "95.478",
    "APOGEE": "576.314",
    "PERIGEE": "507.050",
    "DECAYED": "0"
  },
  {
    "COMMENT": "GENERATED VIA SPACETRACK.ORG API",
    "ORIGINATOR": "18 SPCS",
    "NORAD_CAT_ID": "43682",
    "OBJECT_NAME": "H-2A R/B",
    "OBJECT_TYPE": "ROCKET BODY",
    "CLASSIFICATION_TYPE": "U",
    "INTLDES": "18084L",
    "EPOCH": "2023-05-15 12:36:50",
    "EPOCH_MICROSECONDS": "652864",
    "MEAN_MOTION": "15.08214937",
    "ECCENTRICITY": "0.0050004",
    "INCLINATION": "98.8966",
    "RA_OF_ASC_NODE": "154.5193",
    "ARG_OF_PERICENTER": "250.8081",
    "MEAN_ANOMALY": "108.7728",
    "EPHEMERIS_TYPE": "0",
    "ELEMENT_SET_NO": "999",
    "REV_AT_EPOCH": "24929",
    "BSTAR": "0.00033687",
    "MEAN_MOTION_DOT": "0.00005279",
    "MEAN_MOTION_DDOT": "0",
    "FILE": "3908681",
    "TLE_LINE0": "0 H-2A R/B",
    "TLE_LINE1": "1 43682U 18084L   23135.52558626  .00005279  00000-0  33687-3 0  9990",
    "TLE_LINE2": "2 43682  98.8966 154.5193 0050004 250.8081 108.7728 15.08214937249291",
    "OBJECT_ID": "2018-084L",
    "OBJECT_NUMBER": "43682",
    "SEMIMAJOR_AXIS": "6919.792",
    "PERIOD": "95.477",
    "APOGEE": "576.258",
    "PERIGEE": "507.055",
    "DECAYED": "0"
  },
  {
    "COMMENT": "GENERATED VIA SPACETRACK.ORG API",
    "ORIGINATOR": "18 SPCS",
    "NORAD_CAT_ID": "43682",
    "OBJECT_NAME": "H-2A R/B",
    "OBJECT_TYPE": "ROCKET BODY",
    "CLASSIFICATION_TYPE": "U",
    "INTLDES": "18084L",
    "EPOCH": "2023-05-15 18:58:59",
    "EPOCH_MICROSECONDS": "102976",
    "MEAN_MOTION": "15.0821775",
    "ECCENTRICITY": "0.0049989",
    "INCLINATION": "98.8965",
    "RA_OF_ASC_NODE": "154.8264",
    "ARG_OF_PERICENTER": "249.8949",
    "MEAN_ANOMALY": "109.6892",
    "EPHEMERIS_TYPE": "0",
    "ELEMENT_SET_NO": "999",
    "REV_AT_EPOCH": "24933",
    "BSTAR": "0.00033006",
    "MEAN_MOTION_DOT": "0.00005171",
    "MEAN_MOTION_DDOT": "0",
    "FILE": "3908892",
    "TLE_LINE0": "0 H-2A R/B",
    "TLE_LINE1": "1 43682U 18084L   23135.79096184  .00005171  00000-0  33006-3 0  9991",
    "TLE_LINE2": "2 43682  98.8965 154.8264 0049989 249.8949 109.6892 15.08217750249336",
    "OBJECT_ID": "2018-084L",
    "OBJECT_NUMBER": "43682",
    "SEMIMAJOR_AXIS": "6919.783",
    "PERIOD": "95.477",
    "APOGEE": "576.239",
    "PERIGEE": "507.057",
    "DECAYED": "0"
  },
  {
    "COMMENT": "GENERATED VIA SPACETRACK.ORG API",
    "ORIGINATOR": "18 SPCS",
    "NORAD_CAT_ID": "43682",
    "OBJECT_NAME": "H-2A R/B",
    "OBJECT_TYPE": "ROCKET BODY",
    "CLASSIFICATION_TYPE": "U",
    "INTLDES": "18084L",
    "EPOCH": "2023-05-16 01:21:07",
    "EPOCH_MICROSECONDS": "496928",
    "MEAN_MOTION": "15.08221209",
    "ECCENTRICITY": "0.0049984",
    "INCLINATION": "98.8965",
    "RA_OF_ASC_NODE": "155.1334",
    "ARG_OF_PERICENTER": "249.0087",
    "MEAN_ANOMALY": "110.5785",
    "EPHEMERIS_TYPE": "0",
    "ELEMENT_SET_NO": "999",
    "REV_AT_EPOCH": "24937",
    "BSTAR": "0.00033628",
    "MEAN_MOTION_DOT": "0.00005271",
    "MEAN_MOTION_DDOT": "0",
    "FILE": "3908985",
    "TLE_LINE0": "0 H-2A R/B",
    "TLE_LINE1": "1 43682U 18084L   23136.05633677  .00005271  00000-0  33628-3 0  9996",
    "TLE_LINE2": "2 43682  98.8965 155.1334 0049984 249.0087 110.5785 15.08221209249378",
    "OBJECT_ID": "2018-084L",
    "OBJECT_NUMBER": "43682",
    "SEMIMAJOR_AXIS": "6919.772",
    "PERIOD": "95.477",
    "APOGEE": "576.225",
    "PERIGEE": "507.050",
    "DECAYED": "0"
  },
  {
    "COMMENT": "GENERATED VIA SPACETRACK.ORG API",
    "ORIGINATOR": "18 SPCS",
    "NORAD_CAT_ID": "43682",
    "OBJECT_NAME": "H-2A R/B",
    "OBJECT_TYPE": "ROCKET BODY",
    "CLASSIFICATION_TYPE": "U",
    "INTLDES": "18084L",
    "EPOCH": "2023-05-16 12:29:52",
    "EPOCH_MICROSECONDS": "108800",
    "MEAN_MOTION": "15.08225289",
    "ECCENTRICITY": "0.0049969",
    "INCLINATION": "98.8964",
    "RA_OF_ASC_NODE": "155.6708",
    "ARG_OF_PERICENTER": "247.4181",
    "MEAN_ANOMALY": "112.1752",
    "EPHEMERIS_TYPE": "0",
    "ELEMENT_SET_NO": "999",
    "REV_AT_EPOCH": "24944",
    "BSTAR": "0.00030223",
    "MEAN_MOTION_DOT": "0.00004728",
    "MEAN_MOTION_DDOT": "0",
    "FILE": "3909472",
    "TLE_LINE0": "0 H-2A R/B",
    "TLE_LINE1": "1 43682U 18084L   23136.52074200  .00004728  00000-0  30223-3 0  9993",
    "TLE_LINE2": "2 43682  98.8964 155.6708 0049969 247.4181 112.1752 15.08225289249449",
    "OBJECT_ID": "2018-084L",
    "OBJECT_NUMBER": "43682",
    "SEMIMAJOR_AXIS": "6919.760",
    "PERIOD": "95.476",
    "APOGEE": "576.202",
    "PERIGEE": "507.048",
    "DECAYED": "0"
  }
]